     2.10           GLONASS NAV DATA                        RINEX VERSION / TYPE
SPIDER V4,0,0,3554                      2015 03 13 02:56    PGM / RUN BY / DATE 
  2015     2    24   -6.984919309616e-009                    CORR TO SYSTEM TIME 
    16                                                      LEAP SECONDS        
                                                            END OF HEADER       
18 15 02 24 00 15  0.0 3.915186971426D-05 9.094947017729D-13 0.000000000000D+00
    1.423674707031D+04-7.306671142578D-01-9.313225746155D-10 0.000000000000D+00
   -1.876087597656D+04 1.125393867493D+00-0.000000000000D+00-3.000000000000D+00
    9.729662109375D+03 3.251453399658D+00-0.000000000000D+00 0.000000000000D+00
24 15 02 24 00 15  0.0-1.215366646647D-04-0.000000000000D+00 0.000000000000D+00
    3.885843261719D+03-1.178611755371D+00 9.313225746155D-10 0.000000000000D+00
    1.416952294922D+04 2.605423927307D+00 0.000000000000D+00 2.000000000000D+00
    2.083722753906D+04-1.549900054932D+00-2.793967723846D-09 0.000000000000D+00
 2 15 02 24 00 15  0.0 1.200465485454D-04 1.818989403546D-12 9.000000000000D+01
    1.543847802734D+04 3.455467224121D-01 1.862645149231D-09 0.000000000000D+00
    2.015477001953D+04 2.006063461304D-01 2.793967723846D-09-4.000000000000D+00
   -2.611765625000D+03 3.547835350037D+00-9.313225746155D-10 0.000000000000D+00
14 15 02 24 00 45  0.0 1.351060345769D-04 3.637978807092D-12 1.800000000000D+03
    2.384247949219D+04-1.246853828430D+00 9.313225746155D-10 0.000000000000D+00
   -7.821782226563D+02 3.225612640381D-02 2.793967723846D-09-7.000000000000D+00
   -8.962040527344D+03-3.332561492920D+00 0.000000000000D+00 0.000000000000D+00
 1 15 02 24 00 45  0.0-1.559695228934D-04 0.000000000000D+00 1.800000000000D+03
    3.159126953125D+03-1.674165725708D+00 9.313225746155D-10 0.000000000000D+00
    1.695157910156D+04-1.955457687378D+00 0.000000000000D+00 1.000000000000D+00
    1.878525585938D+04 2.047056198120D+00-2.793967723846D-09 0.000000000000D+00
 2 15 02 24 00 45  0.0 1.200502738357D-04 1.818989403546D-12 1.800000000000D+03
    1.557947753906D+04-2.201166152954D-01 2.793967723846D-09 0.000000000000D+00
    1.986568994141D+04-4.952344894409D-01 1.862645149231D-09-4.000000000000D+00
    3.792775878906D+03 3.522205352783D+00-9.313225746155D-10 0.000000000000D+00
15 15 02 24 00 45  0.0 3.966409713030D-05 9.094947017729D-13 1.800000000000D+03
    2.292629931641D+04 9.886264801025D-01 0.000000000000D+00 0.000000000000D+00
   -8.252164550781D+03-4.431056976318D-01 9.313225746155D-10 0.000000000000D+00
    7.741159179688D+03-3.393635749817D+00-0.000000000000D+00 0.000000000000D+00
16 15 02 24 00 45  0.0-1.994241029024D-05 9.094947017729D-13 1.800000000000D+03
    7.125701660156D+03 2.877650260925D+00-9.313225746155D-10 0.000000000000D+00
   -1.168708300781D+04-6.635732650757D-01-9.313225746155D-10-1.000000000000D+00
    2.147348779297D+04-1.321013450623D+00-1.862645149231D-09 0.000000000000D+00
17 15 02 24 00 45  0.0 1.500695943832D-04 9.094947017729D-13 1.800000000000D+03
    1.090638769531D+04-1.023172378540D+00 0.000000000000D+00 0.000000000000D+00
    1.233006835938D+03 2.978990554810D+00 0.000000000000D+00 4.000000000000D+00
    2.305917285156D+04 3.222036361694D-01-2.793967723846D-09 0.000000000000D+00
18 15 02 24 00 45  0.0 3.915466368198D-05 9.094947017729D-13 1.800000000000D+03
    1.283275341797D+04-7.863578796387D-01-9.313225746155D-10 0.000000000000D+00
   -1.600700732422D+04 1.921219825745D+00-0.000000000000D+00-3.000000000000D+00
    1.512926562500D+04 2.709155082703D+00-9.313225746155D-10 0.000000000000D+00
24 15 02 24 00 45  0.0-1.215375959873D-04-0.000000000000D+00 1.800000000000D+03
    2.261801269531D+03-6.306552886963D-01 1.862645149231D-09 0.000000000000D+00
    1.861793164063D+04 2.288196563721D+00 0.000000000000D+00 2.000000000000D+00
    1.727703027344D+04-2.380118370056D+00-2.793967723846D-09 0.000000000000D+00
 3 15 02 24 00 45  0.0 3.587082028389D-05 0.000000000000D+00 3.570000000000D+03
    1.861822216797D+04 1.333343505859D+00 1.862645149231D-09 0.000000000000D+00
    1.106648535156D+04 1.286416053772D+00 2.793967723846D-09 5.000000000000D+00
   -1.346378955078D+04 2.892269134521D+00 0.000000000000D+00 0.000000000000D+00
14 15 02 24 01 15  0.0 1.351144164801D-04 3.637978807092D-12 3.600000000000D+03
    2.093896289063D+04-1.943191528320D+00 1.862645149231D-09 0.000000000000D+00
   -3.490844726563D+02 4.770746231079D-01 1.862645149231D-09-7.000000000000D+00
   -1.453556347656D+04-2.820024490356D+00 9.313225746155D-10 0.000000000000D+00
 1 15 02 24 01 15  0.0-1.559704542160D-04 0.000000000000D+00 3.600000000000D+03
   -3.838603515625D+02-2.242304801941D+00 9.313225746155D-10 0.000000000000D+00
    1.339628662109D+04-1.949895858765D+00-0.000000000000D+00 1.000000000000D+00
    2.169548242188D+04 1.165555953979D+00-2.793967723846D-09 0.000000000000D+00
 2 15 02 24 01 15  0.0 1.200539991260D-04 1.818989403546D-12 3.600000000000D+03
    1.455931298828D+04-9.294176101685D-01 1.862645149231D-09 0.000000000000D+00
    1.849200000000D+04-9.921617507935D-01 9.313225746155D-10-4.000000000000D+00
    9.904802246094D+03 3.224990844727D+00-1.862645149231D-09 0.000000000000D+00
 3 15 02 24 01 15  0.0 3.587268292904D-05 0.000000000000D+00 3.600000000000D+03
    2.067878369141D+04 9.137783050537D-01 2.793967723846D-09 0.000000000000D+00
    1.273954882813D+04 5.816297531128D-01 1.862645149231D-09 5.000000000000D+00
   -7.804279296875D+03 3.355162620544D+00-0.000000000000D+00 0.000000000000D+00
15 15 02 24 01 15  0.0 3.966782242060D-05 1.818989403546D-12 3.600000000000D+03
    2.390529492188D+04 1.000738143921D-01 9.313225746155D-10 0.000000000000D+00
   -8.957866699219D+03-2.980823516846D-01 1.862645149231D-09 0.000000000000D+00
    1.413746093750D+03-3.591476440430D+00-0.000000000000D+00 0.000000000000D+00
16 15 02 24 01 15  0.0-1.994054764509D-05 9.094947017729D-13 3.600000000000D+03
    1.185588769531D+04 2.339421272278D+00-0.000000000000D+00 0.000000000000D+00
   -1.315366162109D+04-9.339647293091D-01-0.000000000000D+00-1.000000000000D+00
    1.829212304688D+04-2.190873146057D+00-1.862645149231D-09 0.000000000000D+00
17 15 02 24 01 15  0.0 1.500723883510D-04 9.094947017729D-13 3.600000000000D+03
    9.468278320313D+03-5.633411407471D-01 9.313225746155D-10 0.000000000000D+00
    6.710299804688D+03 3.056039810181D+00 0.000000000000D+00 4.000000000000D+00
    2.274338574219D+04-6.709070205688D-01-2.793967723846D-09 0.000000000000D+00
18 15 02 24 01 15  0.0 3.915652632713D-05 9.094947017729D-13 3.600000000000D+03
    1.155122949219D+04-6.012039184570D-01-0.000000000000D+00 0.000000000000D+00
   -1.192570361328D+04 2.582316398621D+00-0.000000000000D+00-3.000000000000D+00
    1.935686669922D+04 1.957807540894D+00-1.862645149231D-09 0.000000000000D+00
24 15 02 24 01 15  0.0-1.215385273099D-04-0.000000000000D+00 3.600000000000D+03
    1.566263671875D+03-1.641321182251D-01 1.862645149231D-09 0.000000000000D+00
    2.224262939453D+04 1.698429107666D+00 0.000000000000D+00 2.000000000000D+00
    1.237975146484D+04-3.025902748108D+00-1.862645149231D-09 0.000000000000D+00
 1 15 02 24 01 45  0.0-1.559704542160D-04 0.000000000000D+00 5.400000000000D+03
   -4.810693359375D+03-2.640461921692D+00-0.000000000000D+00 0.000000000000D+00
    1.008037255859D+04-1.698301315308D+00-9.313225746155D-10 1.000000000000D+00
    2.292717138672D+04 1.941442489624D-01-2.793967723846D-09 0.000000000000D+00
15 15 02 24 01 45  0.0 3.967061638832D-05 9.094947017729D-13 5.400000000000D+03
    2.332543261719D+04-7.241201400757D-01 1.862645149231D-09 0.000000000000D+00
   -9.177915527344D+03 9.100914001465D-02 1.862645149231D-09 0.000000000000D+00
   -5.022231933594D+03-3.513477325439D+00 0.000000000000D+00 0.000000000000D+00
 2 15 02 24 01 45  0.0 1.200577244163D-04 1.818989403546D-12 5.400000000000D+03
    1.220858398438D+04-1.679998397827D+00 1.862645149231D-09 0.000000000000D+00
    1.644667529297D+04-1.235965728760D+00 0.000000000000D+00-4.000000000000D+00
    1.525334912109D+04 2.679422378540D+00-2.793967723846D-09 0.000000000000D+00
 3 15 02 24 01 45  0.0 3.587361425161D-05 0.000000000000D+00 5.400000000000D+03
    2.177102880859D+04 2.675514221191D-01 2.793967723846D-09 0.000000000000D+00
    1.322437695313D+04-1.720333099365D-02 1.862645149231D-09 5.000000000000D+00
   -1.541413085938D+03 3.558390617371D+00-9.313225746155D-10 0.000000000000D+00
16 15 02 24 01 45  0.0-1.994147896767D-05 9.094947017729D-13 5.400000000000D+03
    1.543610791016D+04 1.616251945496D+00 0.000000000000D+00 0.000000000000D+00
   -1.491423876953D+04-9.804840087891D-01 0.000000000000D+00-1.000000000000D+00
    1.368855273438D+04-2.890837669373D+00-9.313225746155D-10 0.000000000000D+00
17 15 02 24 01 45  0.0 1.500733196735D-04 9.094947017729D-13 5.400000000000D+03
    8.886416992188D+03-9.010314941406D-02 9.313225746155D-10 0.000000000000D+00
    1.204904394531D+04 2.825162887573D+00-0.000000000000D+00 4.000000000000D+00
    2.067458251953D+04-1.613015174866D+00-2.793967723846D-09 0.000000000000D+00
18 15 02 24 01 45  0.0 3.916025161743D-05 9.094947017729D-13 5.400000000000D+03
    1.077786279297D+04-2.347202301025D-01 0.000000000000D+00 0.000000000000D+00
   -6.849484375000D+03 3.013214111328D+00-0.000000000000D+00-3.000000000000D+00
    2.208694628906D+04 1.056128501892D+00-1.862645149231D-09 0.000000000000D+00
 9 15 02 24 01 45  0.0-3.747642040253D-06 0.000000000000D+00 5.580000000000D+03
   -5.998696289063D+02 2.768894195557D+00-9.313225746155D-10 0.000000000000D+00
   -1.153657666016D+04-1.435074806213D+00-9.313225746155D-10-2.000000000000D+00
    2.273255517578D+04-6.444787979126D-01-1.862645149231D-09 0.000000000000D+00
